EFHK 261720Z 06011KT 5000 -SN DRSN FEW012 BKN016 M07/M09 Q1012 0439//33 5439//29 BECMG 4000
